[{"OBJECT_NAME":"KUIPER-00152","OBJECT_ID":"2025-217L","EPOCH":"2026-03-09T02:08:04.930944","MEAN_MOTION":14.79907018,"ECCENTRICITY":5.576e-5,"INCLINATION":51.902,"RA_OF_ASC_NODE":33.2511,"ARG_OF_PERICENTER":92.7348,"MEAN_ANOMALY":267.3678,"EPHEMERIS_TYPE":0,"CLASSIFICATION_TYPE":"U","NORAD_CAT_ID":65772,"ELEMENT_SET_NO":999,"REV_AT_EPOCH":2496,"BSTAR":0.00052321714,"MEAN_MOTION_DOT":3.767e-5,"MEAN_MOTION_DDOT":0},{"OBJECT_NAME":"SL-8 DEB","OBJECT_ID":"1979-089C","EPOCH":"2026-03-09T16:06:40.467744","MEAN_MOTION":14.81723628,"ECCENTRICITY":0.00074448,"INCLINATION":74.0187,"RA_OF_ASC_NODE":149.4404,"ARG_OF_PERICENTER":230.2806,"MEAN_ANOMALY":253.4066,"EPHEMERIS_TYPE":0,"CLASSIFICATION_TYPE":"U","NORAD_CAT_ID":14345,"ELEMENT_SET_NO":999,"REV_AT_EPOCH":26412,"BSTAR":0.00067458329,"MEAN_MOTION_DOT":5.289e-5,"MEAN_MOTION_DDOT":0}]
